IRIDIUM 119             
1 42959U 17061E   24309.44318087  .00001567  00000+0  55217-3 0  9998
2 42959  86.3934 271.6586 0003196  82.7464 277.4095 14.34221639370288
IRIDIUM 107             
1 42960U 17061F   24309.81104893  .00001639  00000+0  57826-3 0  9997
2 42960  86.3928 271.5228 0002643  82.2974 277.8522 14.34214783370351
IRIDIUM 132             
1 42961U 17061G   24309.81739182  .00000728  00000+0  25285-3 0  9995
2 42961  86.3927 271.5042 0002531  84.5755 275.5729 14.34216198370348
IRIDIUM 136             
1 42962U 17061H   24309.43049087  .00001164  00000+0  40863-3 0  9996
2 42962  86.3929 271.6694 0002423  90.0440 270.1034 14.34221931370305
IRIDIUM 139             
1 42963U 17061J   24309.43683407  .00001618  00000+0  57047-3 0  9993
2 42963  86.3930 271.7195 0002592  86.5684 273.5808 14.34221935370313
IRIDIUM 125             
1 42964U 17061K   24309.42414512  .00001245  00000+0  43761-3 0  9996
2 42964  86.3931 271.7751 0002759  92.9026 267.2486 14.34216973370328
IRIDIUM 135             
1 43070U 17083A   24309.46804041  .00000132  00000+0  40167-4 0  9995
2 43070  86.4028 208.4438 0001807  78.7671 281.3728 14.34219905359629
IRIDIUM 138             
1 43071U 17083B   24309.56318758  .00001453  00000+0  51174-3 0  9998
2 43071  86.4015 208.1045 0002140  99.8503 260.2934 14.34217620359623
